{"fetched_at":"2026-06-01T03:51:51Z","count":13675,"tles":[{"name":"FENGYUN 1C DEB","line1":"1 30846U 99025AWG 26103.46225163  .00001154  00000+0  35949-3 0  9990","line2":"2 30846  99.3284 292.8416 0052900 340.3583  49.5330 14.42298685996841","category":"Weather"},{"name":"STARLINK-34495","line1":"1 64428U 25129S   26151.50628543  .00002291  00000+0  19968-3 0  9990","line2":"2 64428  70.0009 225.5973 0003606 269.8032  90.2714 14.98335323 53697","category":"Starlink"},{"name":"STARLINK-3272","line1":"1 50187U 21125AH  26151.45256174  .00025662  00000+0  15212-2 0  9994","line2":"2 50187  53.2144 226.9310 0000580  51.5177 308.5868 15.11237888249225","category":"Starlink"},{"name":"STARLINK-36574","line1":"1 67535U 26014D   26151.22354993  .00037928  00000+0  11712-2 0  9993","line2":"2 67535  97.2869  38.2081 0000773  80.0099 280.1231 15.33447910 21438","category":"Starlink"},{"name":"COSMOS 1191","line1":"1 11871U 80057A   26104.45695497  .00000016  00000+0  00000+0 0  9995","line2":"2 11871  65.9265  78.1045 6644655  20.1444 356.7565  2.01013588242181","category":"Other"},{"name":"PRAETORIAN SDA_609","line1":"1 65572U 25203H   26151.09510780  .00000211  00000+0  17818-3 0  9993","line2":"2 65572  81.3061  26.6183 0006005 235.0809 124.9784 13.84283407 36330","category":"Other"},{"name":"STARLINK-30943","line1":"1 58449U 23183N   26150.75851406 -.00001931  00000+0 -60682-4 0  9998","line2":"2 58449  43.0004 272.2735 0001062 250.1419 109.9319 15.27578521139583","category":"Starlink"},{"name":"GHGSAT-C5","line1":"1 52744U 22057N   26151.45090145  .00009061  00000+0  27692-3 0  9995","line2":"2 52744  97.6665 298.0396 0007069 167.4980 192.6439 15.34098552222975","category":"Other"},{"name":"KUIPER-00253","line1":"1 68584U 26072M   26151.50002315 -.00022561  00000+0 -13385-2 0  9998","line2":"2 68584  51.8844 258.8936 0007289 345.3371  32.0509 15.10506450  5355","category":"Other"},{"name":"STARLINK-5837","line1":"1 56346U 23058AF  26151.46967206  .00000805  00000+0  59800-4 0  9995","line2":"2 56346  97.4211 151.2539 0001988  97.3872 262.7581 15.05650073170582","category":"Starlink"},{"name":"RADUGA-1 7","line1":"1 28194U 04010A   26104.88072029  .00000125  00000+0  00000+0 0  9994","line2":"2 28194  13.6055  21.2679 0004654 247.8259 296.0152  1.00186986 80786","category":"Other"},{"name":"STARLINK-31619","line1":"1 59531U 24073W   26151.51071301  .00000987  00000+0  45393-4 0  9993","line2":"2 59531  42.9972 210.1462 0001376 266.1592  93.9102 15.27577571119969","category":"Starlink"},{"name":"ONEWEB-0172","line1":"1 48071U 21025AF  26151.46742816  .00000357  00000+0  94309-3 0  9995","line2":"2 48071  87.8949 323.5504 0001644  96.3143 263.8174 13.13469983252311","category":"Other"},{"name":"FENGYUN 1C DEB","line1":"1 30936U 99025BAA 26103.78225816  .00000599  00000+0  27858-3 0  9992","line2":"2 30936  98.5656 136.5014 0045145 295.9392 123.1404 14.23666066988695","category":"Weather"},{"name":"STARLINK-34462","line1":"1 64493U 25133X   26151.43381741  .00210428  00000+0  59837-2 0  9996","line2":"2 64493  53.1621  89.8493 0000898  87.2925 272.8180 15.34832710 53892","category":"Starlink"},{"name":"TIANHUI 4A","line1":"1 50572U 21134A   26151.53081221  .00009532  00000+0  19279-3 0  9996","line2":"2 50572  88.9693 325.0981 0010437 123.4268 236.7991 15.46256819247291","category":"Other"},{"name":"STARLINK-36582","line1":"1 67599U 26018L   26151.14961032  .00032186  00000+0  99487-3 0  9993","line2":"2 67599  97.2816 216.2235 0000557  96.1003 264.0303 15.33450904 20024","category":"Starlink"},{"name":"STARLINK-5400","line1":"1 54861U 22177AT  26151.00693370 -.00002470  00000+0 -80280-4 0  9992","line2":"2 54861  43.0046  16.3880 0001084 264.8270  95.2458 15.27570219189685","category":"Starlink"},{"name":"INSAT-1A","line1":"1 13129U 82031A   26105.01364073 -.00000309  00000+0  00000+0 0  9999","line2":"2 13129   7.2762 298.9210 0015746  78.6050 287.5081  1.00353215165803","category":"Other"},{"name":"STARLINK-35209","line1":"1 65636U 25210Q   26151.51723086  .00033590  00000+0  10015-2 0  9991","line2":"2 65636  53.1598 281.5562 0000843  39.2260 320.8804 15.34379107 40420","category":"Starlink"},{"name":"STARLINK-30998","line1":"1 58513U 23191F   26150.99137010  .00000730  00000+0  36035-4 0  9992","line2":"2 58513  43.0025 359.0426 0001520 264.4919  95.5760 15.27595646138082","category":"Starlink"},{"name":"STARLINK-4212","line1":"1 52846U 22062S   26151.06171323 -.00001024  00000+0 -46258-4 0  9992","line2":"2 52846  53.1951  24.3358 0001423 110.5500 249.5645 15.08834461218228","category":"Starlink"},{"name":"QIANFAN-121","line1":"1 68648U 26075N   26150.90722483  .00000076  00000+0  89063-4 0  9993","line2":"2 68648  88.9879 322.7663 0011243  55.9592 304.2629 13.57844064  7474","category":"Other"},{"name":"STARLINK-6258","line1":"1 56413U 23061AR  26150.97326326 -.00002125  00000+0 -67766-4 0  9990","line2":"2 56413  43.0003  82.7807 0000786 254.8751 105.2014 15.27559198169456","category":"Starlink"},{"name":"CZ-2F DEB","line1":"1 59595U 24078E   24117.85336774  .13837883  68135-5  88539-2 0  9996","line2":"2 59595  41.2954  36.8973 0161439 124.3929 237.3200 15.94157667   211","category":"Other"},{"name":"COSMOS 2251 DEB","line1":"1 34064U 93036KB  26104.90734380  .00000934  00000+0  28740-3 0  9994","line2":"2 34064  74.0331  42.2795 0020349  84.9196 342.9105 14.42804178899189","category":"Other"},{"name":"ONEWEB-0344","line1":"1 49210U 21083AA  26151.51313946 -.00000100  00000+0 -30744-3 0  9990","line2":"2 49210  87.8931 323.5640 0001898 105.3700 254.7639 13.13471748228703","category":"Other"},{"name":"SL-12 R/B(2)","line1":"1 25334U 98028D   26104.74488304 -.00000101  00000+0  00000+0 0  9996","line2":"2 25334  17.4271 357.7178 4859386 341.5322 250.0136  1.82179853185894","category":"Other"},{"name":"ATLAS 5 CENTAUR DEB","line1":"1 43969U 14055Y   26054.84512084 -.00000034  00000+0  00000+0 0  9991","line2":"2 43969  19.3984 160.4739 5089053 129.2912 288.0175  1.77735719 29350","category":"Other"},{"name":"2023-003B","line1":"1 55134U 23003B   23362.48771869  .00012904  00000+0  45598-3 0  9991","line2":"2 55134  97.2498  81.8615 0012724 117.9588 242.2942 15.29246688 53827","category":"Other"},{"name":"STARLINK-33839","line1":"1 64113U 25110T   26150.96708799  .00033250  00000+0  10779-2 0  9991","line2":"2 64113  53.1594   4.2982 0001046  78.0865 282.0254 15.31716152 58484","category":"Starlink"},{"name":"UNKNOWN","line1":"1 89101U          26091.65486117  .00000375  00000+0  12472-2 0  9997","line2":"2 89101 100.4750  29.9210 0146273 223.0426 135.9164 13.04042441569173","category":"Other"},{"name":"INTELSAT 17 (IS-17)","line1":"1 37238U 10065B   26151.44299802  .00000011  00000+0  00000+0 0  9998","line2":"2 37238   0.0209 131.8573 0002378 297.3882  45.1756  1.00271004 53082","category":"Other"},{"name":"SPACEBEE-151","line1":"1 52413U 22047V   23362.43509401  .00067430  00000+0  14268-2 0  9994","line2":"2 52413  97.4056  86.8600 0005179  18.3279 341.8156 15.44883421 93468","category":"Other"},{"name":"CZ-6A DEB","line1":"1 60830U 24140HH  24249.55504036  .00001931  00000+0  12604-2 0  9995","line2":"2 60830  88.9264 347.5443 0151839 130.1111 231.3488 13.96422501  3264","category":"Other"},{"name":"HULIANWANG DIGUI-118","line1":"1 66957U 25287E   26151.49100167  .00000039  00000+0  57204-4 0  9993","line2":"2 66957  86.4914 287.9718 0001676 112.3185 247.8127 13.24411867 23137","category":"Other"},{"name":"FENGYUN 1C DEB","line1":"1 30404U 99025ADT 26098.98488503  .00000974  00000+0  13550-2 0  9991","line2":"2 30404  99.8238 191.3765 0378678 213.2253 144.4572 13.34529098596002","category":"Weather"},{"name":"FLOCK 4V-17","line1":"1 46529U 20061BF  24072.11512838  .18733990  25059-5  38390-3 0  9991","line2":"2 46529  97.2807 155.8197 0014231 272.4239  87.5435 16.45886670191933","category":"Other"},{"name":"STARLINK-6226","line1":"1 56544U 23065AT  26151.25452264  .00000676  00000+0  34075-4 0  9996","line2":"2 56544  43.0010 116.9442 0001100 263.8368  96.2358 15.27578897169108","category":"Starlink"},{"name":"STARLINK-34971","line1":"1 65256U 25179X   26151.05726911  .00005702  00000+0  39886-3 0  9994","line2":"2 65256  97.4238 193.6808 0001285 117.0392 243.0966 15.05656839 43941","category":"Starlink"},{"name":"STARLINK-32621","line1":"1 62303U 24239C   26151.22840382  .00026702  00000+0  91049-3 0  9990","line2":"2 62303  53.1576 157.5656 0001075  70.9627 289.1491 15.30198461 82206","category":"Starlink"},{"name":"STARLINK-36335","line1":"1 68015U 26040A   26151.39809471  .00016047  00000+0  49840-3 0  9993","line2":"2 68015  97.2851 100.2571 0002089  92.7730 267.3752 15.33439378 14134","category":"Starlink"},{"name":"CZ-7A R/B","line1":"1 66314U 25250B   25316.23333361  .31292675 -21828-4  14021-2 0  9996","line2":"2 66314  19.9176  96.2576 3166388 167.6396 202.4838  9.41652562   864","category":"Other"},{"name":"2025-067A","line1":"1 63428U 25067A   25119.18231352  .00082526  00000+0  18519-2 0  9994","line2":"2 63428  54.9952  83.0088 0008340  17.5247 342.6069 15.42707415  4322","category":"Other"},{"name":"QIANFAN-136","line1":"1 69082U 26104K   26151.53237728  .00000129  00000+0  54146-4 0  9995","line2":"2 69082  88.9862 343.5171 0004223 156.0976 204.0411 14.19913048  2720","category":"Other"},{"name":"COSMOS 2251 DEB","line1":"1 34303U 93036MZ  26104.91300697  .00002144  00000+0  43682-3 0  9998","line2":"2 34303  74.0045  54.2329 0135803 164.0562 254.0567 14.55965297897549","category":"Other"},{"name":"ATLAS 5 CENTAUR DEB","line1":"1 49341U 18079ES  26102.52410684 -.00000070  00000+0  00000+0 0  9993","line2":"2 49341  13.6258  52.5223 4649538 269.9930  38.8294  1.75092077 29557","category":"Other"},{"name":"GLOBALSTAR M042","line1":"1 25679U 99019D   26105.21634264 -.00000065  00000+0  25146-3 0  9991","line2":"2 25679  52.0011 278.3060 0002836 185.2655 345.8490 12.22096513222186","category":"Other"}]}